STARLINK-1920
1 16751C 20074N   21326.08836375  .00005326  00000-0  35683-3 0  3268
2 16751  53.0519 163.3494 0002026  76.5866 147.6368 15.06394600    16
